STARLINK-31164          
1 58733U 24005F   26068.46504083  .00004947  00000+0  19397-3 0  9994
2 58733  43.0011 220.6476 0001690 274.9327  85.1331 15.26744385120407
LYNK TOWER 5            
1 59121U 24043Z   26068.92489786  .00009048  00000+0  31902-3 0  9994
2 59121  97.5458 204.7305 0010406 234.6422 125.3846 15.29454506111860
